property_number,venue_name,venue_address,suburb_name,space_type,website,lat,lon,location,geolocation
609454,Alumbra,"Shed 9, Victoria Harbour, Docklands, 3008",Docklands,Nightclub,http://www.alumbra.com.au/,-37.81656882,144.943835,POINT (144.943834998348 -37.816568815),"-37.81656881500009, 144.94383499834845"
646930,Bar Nacional,"Tenancy 47, Ground, 727 Collins Street, Docklands, 3008",Docklands,Bar,http://www.barnacional.com.au/,-37.82046726,144.9498229,POINT (144.949822902931 -37.820467259122),"-37.82046725912159, 144.94982290293075"
681513,Bomba Tapas Bar and Rooftop,"Ground & Rooftop, 103 Lonsdale Street, Melbourne, 3000",Melbourne (CBD),Bar,https://bombabar.com.au/,-37.81038063,144.9692358,POINT (144.969235763373 -37.810380634625),"-37.81038063462455, 144.9692357633733"
642863,"Club 23, Crown Melbourne","Restaurant Crown Towers Hotel, Crown Casino, 8 Whiteman Street, Southbank, 3006",Southbank,Nightclub,http://www.level3atcrown.com.au/,-37.82243273,144.9601749,POINT (144.960174881083 -37.822432727203),"-37.82243272720292, 144.9601748810828"
627193,Aria Bar & Lounge,"Podium, 1 Southgate Avenue, Southbank, 3006",Southbank,Bar,http://www.sebeldocklands.com.au/en/meeting-rooms/aria-bar-and-events.html,-37.82047862,144.9658909,POINT (144.965890924585 -37.820478615158),"-37.82047861515797, 144.96589092458512"
515538,Paris Cat Jazz Club,"4-6 Goldie Place, Melbourne, 3000",Melbourne (CBD),Venue,http://pariscat.com.au/,-37.81355853,144.9607541,POINT (144.960754075817 -37.813558526666),"-37.813558526665716, 144.96075407581748"
567241,Clique Bar,"Level 1, 26 King Street, Melbourne, 3000",Melbourne (CBD),Nightclub,http://www.cliquebar.com.au/,-37.81961099,144.957393,POINT (144.95739295718 -37.819610990111),"-37.81961099011078, 144.95739295718033"
640957,Man Tong Kitchen,"Shop 46B, Ground, 8 Whiteman Street, Southbank, 3006",Southbank,Bar,http://www.mantongkitchen.com.au/,-37.82237743,144.9601366,POINT (144.96013664102 -37.822377433701),"-37.82237743370056, 144.96013664101957"
513494,Randy Dragon,"Unit 1, Basement, 313-315 Flinders Lane, Melbourne, 3000",Melbourne (CBD),Bar,http://www.randydragon.com.au/,-37.81745674,144.9637891,POINT (144.963789133958 -37.817456737067),"-37.817456737067324, 144.96378913395765"
105749,QV Melbourne,"278-300 Swanston Street, Melbourne, 3000",Melbourne (CBD),Bar,http://www.qv.com.au,-37.8110354,144.9646718,POINT (144.964671763565 -37.811035401688),"-37.81103540168751, 144.96467176356475"
101221,The Elephant and Wheelbarrow,"94-96 Bourke Street, Melbourne, 3000",Melbourne (CBD),Hotel,https://bourkest.elephantandwheelbarrow.com.au/,-37.81200304,144.9703259,POINT (144.970325870793 -37.812003038513),"-37.812003038513254, 144.97032587079298"
598592,RACV City Club,"501 Bourke Street, Melbourne, 3000",Melbourne (CBD),Hotel,https://www.racv.com.au/travel-leisure/racv-club/city-club.html,-37.81557208,144.9591017,POINT (144.959101700764 -37.815572078336),"-37.81557207833605, 144.9591017007643"
508983,Roxanne Bar,"Level 2-3, 2 Coverlid Place, Melbourne, 3000",Melbourne (CBD),Venue,https://www.facebook.com/roxannebarmelbourne/,-37.81229008,144.9685609,POINT (144.968560880516 -37.812290077618),"-37.812290077617654, 144.96856088051632"
540196,The Palms At Crown,"Shop 54A, Level 2, 8 Whiteman Street, Southbank, 3006",Southbank,Bar,https://www.crownmelbourne.com.au/events-conferences/function-venues/the-palms-at-crown,-37.82237606,144.9600572,POINT (144.960057153938 -37.822376056539),"-37.82237605653925, 144.96005715393778"
601617,Lion Hotel at Melbourne Central,"Shop 303, Level 3, 300 Lonsdale Street, Melbourne, 3000",Melbourne (CBD),Bar,http://www.acemelbourne.com.au/mclion/,-37.81049466,144.9626089,POINT (144.962608923036 -37.810494663239),"-37.81049466323917, 144.96260892303593"
644613,Urban Central Backpackers,"Pt Ground & Levels 1-5, 334-342 City Road, Southbank, 3006",Southbank,Venue,http://urbancentral.com.au/,-37.82795248,144.9575823,POINT (144.957582347518 -37.827952475955),"-37.82795247595504, 144.95758234751773"
602248,Workshop,"Level 1, 413-417 Elizabeth Street, Melbourne, 3000",Melbourne (CBD),Bar,http://www.workshopbar.com.au/,-37.80915406,144.9606401,POINT (144.960640079204 -37.809154064931),"-37.80915406493112, 144.9606400792035"
109416,Melbourne Town Hall,"90-130 Swanston Street, Melbourne, 3000",Melbourne (CBD),Performance space,http://www.melbourne.vic.gov.au/community/hubs-bookable-spaces/Pages/melbourne-town-hall-rooms-for-hire.aspx,-37.81491254,144.9664536,POINT (144.966453617043 -37.8149125438),"-37.814912543799636, 144.9664536170434"
104020,The Forum Theatre,"150-162 Flinders Street, Melbourne, 3000",Melbourne (CBD),Venue,https://forummelbourne.com.au/,-37.81672152,144.9694951,POINT (144.969495093855 -37.816721524225),"-37.81672152422505, 144.9694950938554"
544022,Polepole Bar,"Ground & Level 1, 267 Little Collins Street, Melbourne, 3000",Melbourne (CBD),Bar,http://www.polepolebar.com.au/,-37.81471253,144.9655624,POINT (144.965562439614 -37.814712534478),"-37.81471253447779, 144.96556243961416"
574265,GoGo Bar,"Basement, 125 Flinders Lane, Melbourne, 3000",Melbourne (CBD),Bar,https://www.chinchinrestaurant.com.au/melbourne/gogo-bar/,-37.81553872,144.9703604,POINT (144.970360362075 -37.815538724717),"-37.81553872471665, 144.97036036207516"
521316,New Guernica,"Level 2, 318-322 Little Collins Street, Melbourne, 3000",Melbourne (CBD),Nightclub,http://www.newguernica.com.au/,-37.81503811,144.9641086,POINT (144.9641086403 -37.815038108402),"-37.81503810840179, 144.96410864029963"
108202,Capitano,"421 Rathdowne Street, Carlton, 3053",Carlton,Hotel,https://www.thebeaufort.com.au/,-37.79645167,144.9705082,POINT (144.970508237456 -37.796451674887),"-37.79645167488737, 144.97050823745553"
626980,The Woolshed,"Shed 9, Victoria Harbour, Docklands, 3008",Docklands,Hotel,https://www.woolshed.melbourne/,-37.81657159,144.943994,POINT (144.943993958449 -37.816571590804),"-37.816571590803626, 144.9439939584494"
588906,Horse Bazaar,"Ground, 397 Little Lonsdale Street, Melbourne, 3000",Melbourne (CBD),Bar,http://www.horsebazaar.com.au/,-37.81181776,144.9601854,POINT (144.960185414344 -37.811817761782),"-37.81181776178239, 144.96018541434393"
604756,CQ Melbourne,"Ground, 113 Queen Street, Melbourne, 3000",Melbourne (CBD),Nightclub,http://www.cqmelbourne.com.au/our-venues/cq-nightclub-home,-37.81589018,144.9609037,POINT (144.960903667548 -37.815890178212),"-37.815890178211724, 144.9609036675483"
107871,Colour Nightclub,"229 Queensbury St, Carlton, 3053",Carlton,Nightclub,https://www.facebook.com/colournight.club/,-37.80447487,144.9611359,POINT (144.961135887382 -37.80447486558),"-37.80447486558001, 144.9611358873818"
543106,The Red Hummingbird,"Level 1, 246 Russell Street, Melbourne, 3000",Melbourne (CBD),Bar,https://www.redhummingbird.com.au/,-37.81048859,144.9672238,POINT (144.967223847059 -37.81048858506),"-37.81048858505954, 144.96722384705905"
678337,Good Heavens,"Level 2, 79 Bourke Street, Melbourne, 3000",Melbourne (CBD),Bar,http://www.goodheavens.com.au/,-37.81207865,144.9710528,POINT (144.971052796435 -37.812078648742),"-37.81207864874162, 144.97105279643523"
664076,Berlin Bar,"Level 1, 16-20 Corrs Lane, Melbourne, 3000",Melbourne (CBD),Bar,http://www.berlinbar.com.au/,-37.81115704,144.9683765,POINT (144.968376547291 -37.811157037789),"-37.811157037789194, 144.96837654729146"
597955,AAMI Park,"AAMI Park, Olympic Park, 60 Olympic Boulevard, Melbourne, 3004",Melbourne (Remainder),Performance space,https://www.aamipark.com.au/,-37.82396877,144.9825546,POINT (144.982554625348 -37.823968769883),"-37.823968769882505, 144.98255462534763"
559367,Robot Bar,"12 Bligh Place, Melbourne, 3000",Melbourne (CBD),Bar,http://www.robotsushi.com/,-37.81710897,144.9637045,POINT (144.963704482789 -37.817108969405),"-37.81710896940462, 144.9637044827892"
621998,Australian Centre for the Moving Image (ACMI),"Tenancy 6, Alfred Deakin Building, Federation Square, 2 Swanston Street, Melbourne, 3000",Melbourne (CBD),Multi-use,https://www.acmi.net.au/,-37.81834623,144.9690867,POINT (144.969086661639 -37.818346230928),"-37.81834623092842, 144.96908666163947"
592872,Belgian Beer Cafe Melbourne,"5 Riverside Quay, Southbank, 3006",Southbank,Bar,https://www.belgianbeercafemelbourne.com.au/,-37.82144024,144.9644607,POINT (144.964460718687 -37.82144024332),"-37.82144024332026, 144.96446071868732"
513483,The Mill House Bar,"Unit 1, Basement, 277 Flinders Lane, Melbourne, 3000",Melbourne (CBD),Bar,http://themillhouse.com.au/,-37.81703741,144.9652433,POINT (144.965243273825 -37.817037406321),"-37.81703740632109, 144.96524327382468"
102064,Harley House,"71 Collins Street, Melbourne, 3000",Melbourne (CBD),Bar,https://harleyhouse.com.au/,-37.81424169,144.971301,POINT (144.971301009754 -37.814241686179),"-37.81424168617854, 144.97130100975428"
630016,Max Watt's,"Gnd & Bmt, 125 Swanston Street, Melbourne, 3000",Melbourne (CBD),Venue,http://www.maxwatts.com.au/melbourne/,-37.81474151,144.9660093,POINT (144.966009289943 -37.814741513042),"-37.81474151304183, 144.96600928994255"
512532,Coopers Inn,"Shop 1, 242 Exhibition Street, Melbourne, 3000",Melbourne (CBD),Hotel,http://www.coopersinn.com.au/,-37.80991657,144.9697586,POINT (144.969758614292 -37.80991656856),"-37.809916568560254, 144.96975861429243"
110733,Arts Centre Melbourne,"100 St Kilda Road, Southbank, 3006",Southbank,Performance space,https://www.artscentremelbourne.com.au/,-37.82155286,144.968885,POINT (144.968885009268 -37.821552859925),"-37.821552859925035, 144.96888500926758"
101450,Dan O'Connell Hotel,"223-227 Canning Street, Carlton, 3053",Carlton,Hotel,http://www.thedan.com.au/,-37.79303583,144.9735257,POINT (144.973525662395 -37.793035832642),"-37.7930358326425, 144.9735256623954"
103994,Insignia On Flinders,"502-504 Flinders Street, Melbourne, 3000",Melbourne (CBD),Bar,https://www.zomato.com/melbourne/insignia-flinders-street-cbd-melbourne,-37.82013879,144.9577224,POINT (144.957722420873 -37.820138791565),"-37.82013879156501, 144.95772242087293"
106329,Hardimans Hotel,"521 Macaulay Road, Kensington, 3031",Kensington,Hotel,http://www.hardimans.com.au/,-37.79436126,144.9286032,POINT (144.928603159255 -37.794361259769),"-37.79436125976925, 144.92860315925475"
105379,Colonial Hotel/Brown Alley Night Club,"240 King Street, Melbourne, 3000",Melbourne (CBD),Hotel,https://www.thecolonialhotel.com.au/,-37.81460565,144.9550937,POINT (144.955093689274 -37.81460565415),"-37.81460565414994, 144.95509368927424"
644830,Bird's Basement,"11 Singers Lane, Melbourne, 3000",Melbourne (CBD),Venue,https://birdsbasement.com/,-37.81120983,144.9567972,POINT (144.95679721844 -37.811209833262),"-37.8112098332617, 144.95679721844013"
106081,The Curtin,"John Curtin Hotel, 27-31 Lygon Street, Carlton, 3053",Carlton,Venue,http://www.johncurtinhotel.com/,-37.80621217,144.9658161,POINT (144.965816062482 -37.806212169256),"-37.806212169256085, 144.9658160624824"
105705,Club Retro,"383 Lonsdale Street, Melbourne, 3000",Melbourne (CBD),Nightclub,http://www.clubretro.com.au/,-37.81272938,144.9612212,POINT (144.961221230339 -37.812729378943),"-37.812729378942684, 144.96122123033936"
665911,Riverland Bar,"Vault, 1-9 Princes Walk, Melbourne, 3000",Melbourne (CBD),Bar,http://www.riverlandbar.com/,-37.81868951,144.9686972,POINT (144.968697209532 -37.81868951154),"-37.818689511539546, 144.96869720953168"
560832,Disco Bar,"Level 1-4, 167-175 Franklin Street, Melbourne, 3000",Melbourne (CBD),Bar,https://www.tripadvisor.com.au/LocationPhotoDirectLink-g255100-d286290-i126403786-Discovery_Melbourne-Melbourne_Victoria.html,-37.80871597,144.9590246,POINT (144.959024579429 -37.80871596791),"-37.80871596791028, 144.95902457942904"
660469,Margaret Court Arena,"Margaret Court Arena, Melbourne Park, 200 Batman Avenue, Melbourne, 3004",Melbourne (Remainder),Performance space,https://www.margaretcourtarena.com.au/,-37.82259001,144.9779329,POINT (144.977932921749 -37.822590007766),"-37.8225900077663, 144.9779329217489"
587502,Ms Collins,"Gnd & Mezzanine, 425 Collins Street, Melbourne, 3000",Melbourne (CBD),Nightclub,http://www.mscollins.com.au/,-37.81737789,144.9605538,POINT (144.960553816958 -37.817377888963),"-37.8173778889626, 144.96055381695814"
503039,Spaghetti Tree Restaurant,"Ground, 59-63 Bourke Street, Melbourne, 3000",Melbourne (CBD),Bar,http://www.spaghettitree.com.au/,-37.81195322,144.9714825,POINT (144.971482459092 -37.8119532179),"-37.8119532178998, 144.97148245909204"
628340,The Wharf Hotel,"Shop 17, Ground, 18-38 Siddeley Street, Docklands, 3008",Docklands,Hotel,https://www.wharfhotel.com.au/,-37.82227454,144.9535975,POINT (144.953597464404 -37.822274540645),"-37.82227454064513, 144.9535974644043"
545389,Off The Hip Records,"Basement, 387 Flinders Lane, Melbourne, 3000",Melbourne (CBD),Multi-use,https://whatson.melbourne.vic.gov.au/Shopping/BooksMusicandStationery/Music/Pages/1418.aspx,-37.81817022,144.9612684,POINT (144.9612683911 -37.818170221926),"-37.818170221925946, 144.9612683910999"
681564,Speakeasy HQ,"Level 1, 520-522 Flinders Street, Melbourne, 3000",Melbourne (CBD),Theatre,http://speakeasy-hq.com/,-37.82035793,144.9569663,POINT (144.956966253098 -37.820357932688),"-37.820357932687585, 144.95696625309793"
681548,170 Russell/Billboard Nightclub,"Basement,Part Ground & Part Level 8, 180 Russell Street, Melbourne, 3000",Melbourne (CBD),Nightclub,http://billboardsaturdays.com.au/,-37.81205225,144.9679367,POINT (144.967936728464 -37.812052247519),"-37.812052247519325, 144.96793672846434"
681851,The Irish Times Pub,"Gnd & Flr1, 427 Little Collins Street, Melbourne, 3000",Melbourne (CBD),Bar,http://theirishtimespub.com.au/,-37.81619295,144.9604635,POINT (144.960463460251 -37.816192954778),"-37.81619295477831, 144.960463460251"
561179,El Coco,"Ground, 120 King Street, Melbourne, 3000",Melbourne (CBD),Nightclub,http://elcoco.com.au/,-37.81726434,144.9563836,POINT (144.956383566258 -37.81726434462),"-37.81726434461992, 144.95638356625756"
660010,Vamos,"Level 1, 37-41 Little Bourke Street, Melbourne, 3000",Melbourne (CBD),Bar,http://www.vamos.net.au/,-37.81074784,144.9714656,POINT (144.971465595763 -37.810747836953),"-37.810747836953425, 144.97146559576274"
512713,Kathleen Syme Library and Community Centre,"251 Faraday Street, Carlton, 3053",Carlton,Multi-use,http://www.melbourne.vic.gov.au/community/hubs-bookable-spaces/kathleen-syme-library-and-community-centre/Pages/kathleen-syme-library.aspx,-37.79861751,144.9654894,POINT (144.96548938869 -37.79861750965),"-37.79861750965004, 144.9654893886899"
102153,Assembly Hall,"156 Collins Street, Melbourne, 3000",Melbourne (CBD),Performance space,http://www.hallsforhire.com.au/halls/the-assembly-hall,-37.81482479,144.9683182,POINT (144.968318199047 -37.814824793578),"-37.8148247935781, 144.96831819904696"
575245,Ferdydurke,"Level 1-2, 239 Lonsdale Street, Melbourne, 3000",Melbourne (CBD),Bar,http://www.ferdydurke.com.au/,-37.81152723,144.9653532,POINT (144.96535317015 -37.811527225541),"-37.811527225540964, 144.96535317015017"
632394,Troika Bar,"Ground, 106 Little Lonsdale Street, Melbourne, 3000",Melbourne (CBD),Bar,http://troikabar.com/,-37.80925121,144.9686269,POINT (144.968626860253 -37.809251212233),"-37.809251212232525, 144.96862686025293"
527245,Live Performance Australia,"Level 1, 15 Queen Street, Melbourne, 3000",Melbourne (CBD),Multi-use,http://www.liveperformance.com.au/,-37.81840835,144.962078,POINT (144.962077994605 -37.818408350668),"-37.818408350668456, 144.96207799460493"
108118,Queen Victoria Market,"65-159 Victoria Street, Melbourne, 3000",Melbourne (CBD),Performance space,http://qvm.com.au/,-37.80618853,144.9575349,POINT (144.957534867033 -37.806188527485),"-37.806188527484565, 144.9575348670326"
547502,Platform One,"Vault 7-8, 375-377 Flinders Street, Melbourne, 3000",Melbourne (CBD),Nightclub,http://www.platformone.com.au/,-37.81914828,144.9623231,POINT (144.962323074868 -37.819148275608),"-37.81914827560788, 144.96232307486835"
594101,Mesa Verde,"Unit S13, Level 6, 252 Swanston Street, Melbourne, 3000",Melbourne (CBD),Bar,http://www.mesaverde.net.au/,-37.81204087,144.9650525,POINT (144.965052534542 -37.81204087371),"-37.81204087370973, 144.96505253454222"
619895,The Black Rabbit,"Basement, 85 Queen Street, Melbourne, 3000",Melbourne (CBD),Nightclub,https://www.blackrabbit.melbourne/,-37.81650699,144.9612023,POINT (144.961202258384 -37.816506994449),"-37.816506994449085, 144.96120225838388"
109417,Regent Theatre,"191-197 Collins Street, Melbourne, 3000",Melbourne (CBD),Theatre,https://marrinergroup.com.au/venues/regent-theatre,-37.81534585,144.967538,POINT (144.967538000395 -37.815345852733),"-37.81534585273267, 144.9675380003948"
540197,Therapy Nightclub  at Crown,"Shop 52, Level 2, 8 Whiteman Street, Southbank, 3006",Southbank,Nightclub,http://www.level3atcrown.com.au/,-37.82381122,144.9574145,POINT (144.957414492976 -37.823811222171),"-37.82381122217111, 144.95741449297574"
565950,The Last Chance Rock & Roll Bar,"238 Victoria Street, Melbourne, 3000",Melbourne (CBD),Venue,https://www.facebook.com/thelastchancerockandrollbar/,-37.80601961,144.9585523,POINT (144.958552332013 -37.806019609401),"-37.80601960940114, 144.95855233201263"
110148,The Australian Club,"110 William Street, Melbourne, 3000",Melbourne (CBD),Venue,https://theaustralianclub.com.au/,-37.81667148,144.9588461,POINT (144.958846075759 -37.816671478507),"-37.816671478507224, 144.95884607575877"
103619,The Comedy Theatre,"240 Exhibition Street, Melbourne, 3000",Melbourne (CBD),Theatre,https://marrinergroup.com.au/venues/comedy-theatre,-37.81021736,144.9698959,POINT (144.969895927449 -37.810217360848),"-37.81021736084806, 144.96989592744947"
527419,Turf Bar,"Unit 1, LwrGround, 131 Queen Street, Melbourne, 3000",Melbourne (CBD),Bar,http://turfbar.com.au/,-37.81553892,144.9607534,POINT (144.960753423159 -37.815538920511),"-37.815538920511045, 144.96075342315893"
104653,Campari House,"21-25 Hardware Lane, Melbourne, 3000",Melbourne (CBD),Bar,https://www.camparihouse.com.au/,-37.81406901,144.9613921,POINT (144.961392083091 -37.814069014921),"-37.81406901492111, 144.96139208309128"
104468,University of Melbourne,"230 Grattan Street, Parkville, 3010",Parkville,Performance space,https://umsu.unimelb.edu.au/,-37.79991021,144.9604735,POINT (144.960473470222 -37.799910206479),"-37.799910206479105, 144.9604734702218"
565097,Chaise Lounge,"Basement, 105 Queen Street, Melbourne, 3000",Melbourne (CBD),Nightclub,http://www.chaiselounge.com.au/,-37.81607553,144.9610047,POINT (144.961004723867 -37.816075533691),"-37.81607553369085, 144.96100472386703"
580042,Lustre Bar,"4A Centre Place, Melbourne, 3000",Melbourne (CBD),Bar,http://www.lustrebar.com.au/,-37.81675634,144.965621,POINT (144.965621027923 -37.816756341459),"-37.81675634145909, 144.96562102792308"
516520,Max Bar and Restaurant,"Ground, 54 Hardware Lane, Melbourne, 3000",Melbourne (CBD),Bar,http://maxonhardware.com.au/,-37.81347367,144.9611947,POINT (144.96119469999 -37.813473669206),"-37.813473669206125, 144.96119469998956"
110477,Mercury Lounge,"8 Whiteman Street, Southbank, 3006",Southbank,Nightclub,http://www.citybars.com.au/Melbourne_bars/Mercury_Lounge/Bar/25607,-37.82242997,144.9600159,POINT (144.960015906802 -37.822429972875),"-37.82242997287491, 144.96001590680228"
684968,Velvet Bar,"Casino, 8 Whiteman Street, Southbank, 3006",Southbank,Bar,https://www.crownmelbourne.com.au/bars-nightclubs/bars/velvet-bar,-37.82371881,144.9574646,POINT (144.957464552348 -37.823718810126),"-37.82371881012607, 144.95746455234837"
664075,Euro House,"Ground, 16-20 Corrs Lane, Melbourne, 3000",Melbourne (CBD),Nightclub,http://www.eurohouse.com.au/,-37.8111543,144.9682176,POINT (144.968217596379 -37.811154295221),"-37.81115429522088, 144.96821759637908"
503026,Spleen Central,"41 Bourke Street, Melbourne, 3000",Melbourne (CBD),Bar,https://whatson.melbourne.vic.gov.au/DiningandNightlife/BarsandPubs/AllBars/Pages/1804.aspx,-37.81180924,144.9719805,POINT (144.971980464341 -37.811809244791),"-37.81180924479099, 144.9719804643413"
564954,Flinders Station Hotel Backpackers,"Unit 8-17, Level 3-12, 35 Elizabeth Street, Melbourne, 3000",Melbourne (CBD),Hotel,https://oconnells.com.au/,-37.81739448,144.9644989,POINT (144.964498854058 -37.817394481224),"-37.81739448122377, 144.964498854058"
103402,Town Hall Hotel,"33 Errol Street, North Melbourne, 3051",North Melbourne,Hotel,http://www.townhallhotelnorthmelbourne.com.au/,-37.80422448,144.9492425,POINT (144.949242455955 -37.804224481221),"-37.8042244812213, 144.94924245595533"
589716,Watermark Docklands,"Shop 9, 800 Bourke Street, Docklands, 3008",Docklands,Bar,http://www.watermarkdocklands.com.au/,-37.81926761,144.9452695,POINT (144.945269547758 -37.819267610434),"-37.81926761043375, 144.94526954775787"
573333,Federation Square,"2 Swanston Street, Melbourne, 3000",Melbourne (CBD),Performance space,http://fedsquare.com/venue-hire,-37.81839878,144.9689659,POINT (144.968965940054 -37.818398779689),"-37.81839877968878, 144.96896594005398"
110349,Testing Grounds,"1-23 City Road, Southbank, 3006",Southbank,Bar,http://www.testing-grounds.com.au/,-37.82122195,144.9675571,POINT (144.967557080636 -37.821221948092),"-37.82122194809231, 144.9675570806361"
104824,Highlander Bar,"11A Highlander Lane, Melbourne, 3000",Melbourne (CBD),Bar,http://highlanderbar.squarespace.com/,-37.81969181,144.9580106,POINT (144.958010603866 -37.819691805879),"-37.81969180587922, 144.9580106038663"
105967,Boney,"68 Little Collins Street, Melbourne, 3000",Melbourne (CBD),Venue,http://www.boney.net.au/,-37.81290578,144.9713687,POINT (144.971368692428 -37.812905784871),"-37.81290578487124, 144.97136869242834"
105968,Magic Mountain Saloon,"62 Little Collins Street, Melbourne, 3000",Melbourne (CBD),Bar,http://www.magicmountainsaloon.com.au/,-37.8128654,144.97151,POINT (144.971509994186 -37.812865395242),"-37.812865395242035, 144.97150999418588"
634051,Munich Brauhaus,"45 South Wharf Promenade, South Wharf, 3006",Southbank,Hotel,http://www.munichbrauhaus.com/,-37.82407577,144.9504333,POINT (144.950433293517 -37.824075765053),"-37.82407576505346, 144.95043329351685"
613003,P.J. O'Brien's,"Shop 12-16, Ground, 3 Southgate Avenue, Southbank, 3006",Southbank,Hotel,http://www.pjobriens.com.au/southbank/,-37.82033398,144.966418,POINT (144.966418042433 -37.820333979962),"-37.82033397996246, 144.9664180424327"
602028,Golden Monkey,"Basement & Rear, 389 Lonsdale Street, Melbourne, 3000",Melbourne (CBD),Bar,http://goldenmonkey.com.au/,-37.81278386,144.9610322,POINT (144.961032235806 -37.812783862785),"-37.81278386278497, 144.96103223580576"
616043,White Rabbit Record Bar,"176 Bellair Street, Kensington, 3031",Kensington,Bar,http://www.whiterabbitrecords.com.au/White_Rabbit_Record_Bar/home.html,-37.79363079,144.9300832,POINT (144.93008320374 -37.793630792515),"-37.79363079251513, 144.9300832037398"
101216,The Croft Institute,"21-25 Croft Alley, Melbourne, 3000",Melbourne (CBD),Nightclub,http://www.thecroftinstitute.com.au/,-37.81205274,144.9691239,POINT (144.969123893239 -37.812052740785),"-37.8120527407846, 144.96912389323862"
634045,The General Assembly,"29 South Wharf Promenade, South Wharf, 3006",Southbank,Hotel,http://www.thegeneralassembly.com.au/,-37.82411829,144.9518903,POINT (144.95189029706 -37.824118286905),"-37.82411828690496, 144.95189029706034"
108547,Exford Hotel,"199-203 Russell Street, Melbourne, 3000",Melbourne (CBD),Hotel,http://www.exfordhotel.com.au/,-37.81176295,144.9674387,POINT (144.967438737545 -37.811762953914),"-37.81176295391396, 144.96743873754548"
110484,The Plenary Hall,"2 Clarendon Street, South Wharf, 3006",Southbank,Multi-use,http://mcec.com.au/plan-an-event/rooms/plenary/,-37.82362714,144.9560232,POINT (144.956023177649 -37.823627136261),"-37.823627136260576, 144.9560231776494"
101979,Ormond Hall,"17 Church Street, Parkville, 3052",Parkville,Performance space,https://www.onlymelbourne.com.au/ormond-hall,-37.78783638,144.9416332,POINT (144.941633213417 -37.787836383751),"-37.78783638375116, 144.9416332134173"
577356,Library at The Dock,"107 Victoria Harbour Promenade, Docklands, 3008",Docklands,Multi-use,http://www.melbourne.vic.gov.au/community/hubs-bookable-spaces/the-dock/library-at-the-dock/Pages/library-at-the-dock.aspx,-37.81987305,144.9407561,POINT (144.940756089358 -37.819873054704),"-37.819873054704324, 144.94075608935833"
614523,The Barre,"100 St Kilda Road, Southbank, 3006",Southbank,Bar,https://www.artscentremelbourne.com.au/your-visit/eat-drink-shop-rest/the-barre,-37.82150031,144.9690057,POINT (144.96900573615 -37.821500311423),"-37.82150031142338, 144.96900573614997"
532712,Cookie,"Unit S2, Level 1, 252 Swanston Street, Melbourne, 3000",Melbourne (CBD),Bar,http://www.cookie.net.au/,-37.8121053,144.9651303,POINT (144.965130279587 -37.812105299614),"-37.812105299613584, 144.9651302795867"
681520,401 The Order,"Level 2 & Roof, 401 Swanston Street, Melbourne, 3000",Melbourne (CBD),Bar,http://www.theorder.com.au/,-37.80903643,144.9633771,POINT (144.963377097931 -37.809036429997),"-37.809036429996624, 144.96337709793107"
110392,Fabrique Bar,"272 City Road, Southbank, 3006",Southbank,Nightclub,http://www.fabriquebar.com/,-37.82629052,144.9594461,POINT (144.959446062419 -37.826290523184),"-37.82629052318406, 144.95944606241918"
508074,The Charles Dickens Tavern,"Basement, 290 Collins Street, Melbourne, 3000",Melbourne (CBD),Hotel,https://whatson.melbourne.vic.gov.au/DiningandNightlife/BarsandPubs/AllPubs/Pages/4952.aspx,-37.81593816,144.9645302,POINT (144.964530190969 -37.815938155288),"-37.81593815528815, 144.96453019096924"
110862,Meat Market Art Centre,"36-54 Courtney Street, North Melbourne, 3051",North Melbourne,Theatre,http://www.melbourne.vic.gov.au/community/hubs-bookable-spaces/meat-market/Pages/meat-market.aspx,-37.80159051,144.9537282,POINT (144.953728207808 -37.801590507328),"-37.80159050732829, 144.95372820780835"
101613,Clyde Hotel,"377-389 Cardigan Street, Carlton, 3053",Carlton,Hotel,https://www.theclydehotel.com.au/location/,-37.7972842,144.9658479,POINT (144.965847915991 -37.797284200523),"-37.797284200523016, 144.965847915991"
101130,The Carlton,"193-199 Bourke Street, Melbourne, 3000",Melbourne (CBD),Hotel,http://www.thecarlton.com.au/,-37.8130947,144.9676167,POINT (144.967616699364 -37.813094702577),"-37.81309470257678, 144.9676166993641"
631874,Tramp Bar,"Basement, 20 King Street, Melbourne, 3000",Melbourne (CBD),Nightclub,https://trampbar.com/,-37.8197758,144.9574698,POINT (144.95746975329 -37.819775804387),"-37.819775804387085, 144.95746975329038"
100730,Melbourne Savage Club,"The Melbourne Savage Club, 12-16 Bank Place, Melbourne, 3000",Melbourne (CBD),Nightclub,http://melbournesavageclub.com/,-37.81658693,144.9604365,POINT (144.96043647413 -37.816586931702),"-37.81658693170178, 144.96043647413035"
542683,Khokolat Bar,"Basement, 43-49 Hardware Lane, Melbourne, 3000",Melbourne (CBD),Nightclub,http://khokolatbar.com.au/,-37.81359472,144.9611705,POINT (144.961170479878 -37.8135947193),"-37.81359471929996, 144.96117047987784"
587676,Father's Office,"249 Little Lonsdale Street, Melbourne, 3000",Melbourne (CBD),Bar,http://fathersoffice.com.au/,-37.81051764,144.9646508,POINT (144.964650837614 -37.810517638504),"-37.81051763850372, 144.9646508376141"
622017,Shed 14/Peninsula,"161 Harbour Esplanade, Docklands, 3008",Docklands,Performance space,https://www.residentadvisor.net/club.aspx?id=14337,-37.81596806,144.9449729,POINT (144.944972893634 -37.815968060675),"-37.81596806067532, 144.94497289363386"
538247,Gin Palace,"10 Russell Place, Melbourne, 3000",Melbourne (CBD),Bar,http://www.ginpalace.com.au/,-37.81385598,144.9674488,POINT (144.967448785254 -37.813855983891),"-37.81385598389118, 144.96744878525442"
614000,Rod Laver Arena,"Rod Laver Arena, Melbourne Park, 200 Batman Avenue, Melbourne, 3004",Melbourne (Remainder),Performance space,https://www.rodlaverarena.com.au/,-37.82258728,144.9777739,POINT (144.977773945379 -37.822587277396),"-37.82258727739611, 144.97777394537906"
560714,West Space Inc,"Level 1, 225 Bourke Street, Melbourne, 3000",Melbourne (CBD),Multi-use,https://westspace.org.au/,-37.81328852,144.9669503,POINT (144.966950282251 -37.81328852221),"-37.81328852220956, 144.96695028225128"
110106,The Metropolitan Hotel,"The Metropolitan Hotel, 263-265 William Street, Melbourne, 3000",Melbourne (CBD),Hotel,http://metropolitan.melbourne/,-37.8129114,144.9567624,POINT (144.956762404713 -37.812911404983),"-37.812911404982586, 144.95676240471337"
108983,The Hotel Windsor,"103-137 Spring Street, Melbourne, 3000",Melbourne (CBD),Hotel,http://www.thehotelwindsor.com.au/,-37.81195937,144.9731363,POINT (144.973136283165 -37.811959374921),"-37.81195937492122, 144.97313628316482"
619040,Fad Gallery,"Gnd & Flr1, 14 Corrs Lane, Melbourne, 3000",Melbourne (CBD),Bar,http://fadgallery.com.au/,-37.8112354,144.968335,POINT (144.968334983469 -37.811235398938),"-37.811235398938436, 144.9683349834688"
607972,Penny Blue,"2 Driver Lane, Melbourne, 3000",Melbourne (CBD),Bar,https://pennyblue.com.au/,-37.81282107,144.9629887,POINT (144.962988683791 -37.812821068095),"-37.81282106809502, 144.96298868379125"
567595,Vodka Temple,"Ground, 160-162 Lygon Street, Carlton, 3053",Carlton,Nightclub,https://www.vodkatemple.com.au/,-37.80345202,144.9666383,POINT (144.966638338066 -37.803452023533),"-37.80345202353251, 144.9666383380664"
635138,Union Electric,"13 Heffernan Lane, Melbourne, 3000",Melbourne (CBD),Bar,http://unionelectric.com.au/,-37.81177326,144.9666889,POINT (144.9666888907 -37.811773258347),"-37.811773258347344, 144.9666888906996"
105675,Seamstress Restaurant and Bar,"113 Lonsdale Street, Melbourne, 3000",Melbourne (CBD),Bar,http://www.seamstress.com.au/prod/,-37.81046225,144.9689575,POINT (144.968957460444 -37.810462248536),"-37.81046224853603, 144.96895746044424"
103626,European Bier Café,"120 Exhibition Street, Melbourne, 3000",Melbourne (CBD),Bar,http://europeanbiercafe.com.au/,-37.81285332,144.9711042,POINT (144.971104173889 -37.812853320782),"-37.81285332078208, 144.97110417388942"
661406,Arbory Bar and Eatery,"2 Flinders Walk, Melbourne, 3000",Melbourne (CBD),Bar,http://arbory.com.au/,-37.81890972,144.9667926,POINT (144.966792633727 -37.818909724709),"-37.81890972470938, 144.96679263372738"
631757,Touche Hombre,"237 Lonsdale Street, Melbourne, 3000",Melbourne (CBD),Bar,https://www.touchehombre.com.au/,-37.81150165,144.96544,POINT (144.965439962445 -37.811501653873),"-37.81150165387338, 144.9654399624449"
105636,The Leveson,"46 Leveson Street, North Melbourne, 3051",North Melbourne,Hotel,http://theleveson.melbourne/,-37.80370793,144.9511851,POINT (144.951185078014 -37.803707930187),"-37.80370793018695, 144.951185078014"
542129,Cherry Bar,"Basement, 103 Flinders Lane, Melbourne, 3000",Melbourne (CBD),Venue,http://cherrybar.com.au/,-37.81537653,144.970897,POINT (144.970897015966 -37.815376525089),"-37.815376525088666, 144.97089701596647"
540072,Victorian Arts Centre Trust,"Carpark, 100 St Kilda Road, Southbank, 3006",Southbank,Multi-use,https://www.artscentremelbourne.com.au/about-us/media-centre/2017/may/victorian-arts-centre-trust,-37.82144365,144.968888,POINT (144.968888003294 -37.821443649433),"-37.82144364943292, 144.9688880032937"
529290,Eden Bar,"Level 1, 163-165 Russell Street, Melbourne, 3000",Melbourne (CBD),Nightclub,http://edenbar.com.au/,-37.81248789,144.9677712,POINT (144.967771218557 -37.812487885713),"-37.81248788571263, 144.9677712185572"
109436,Section 8 Bar,"27-29 Tattersalls Lane, Melbourne, 3000",Melbourne (CBD),Bar,https://section8.com.au/,-37.81176271,144.9654889,POINT (144.965488943803 -37.811762714904),"-37.8117627149045, 144.9654889438025"
102148,Athenaeum Theatre,"184-192 Collins Street, Melbourne, 3000",Melbourne (CBD),Theatre,http://www.athenaeumtheatre.com.au/,-37.81509631,144.9673102,POINT (144.967310189076 -37.815096313615),"-37.81509631361538, 144.96731018907587"
520402,The Bodega,"Shop 2, 47-55 Little Bourke Street, Melbourne, 3000",Melbourne (CBD),Bar,https://www.facebook.com/thebodegabar/,-37.81088908,144.9710336,POINT (144.97103359901 -37.810889079328),"-37.8108890793276, 144.97103359901016"
502980,Bond Lounge Bar,"Ground, 20-24 Bond Street, Melbourne, 3000",Melbourne (CBD),Nightclub,http://www.bondmelbourne.com.au/,-37.81818043,144.9628289,POINT (144.962828938799 -37.818180434553),"-37.818180434552545, 144.96282893879925"
520980,Marrakech Bar,"LwrGround, 25 Bank Place, Melbourne, 3000",Melbourne (CBD),Nightclub,http://www.marrakechcocktailbar.com.au/,-37.81630543,144.9602164,POINT (144.960216424481 -37.816305431732),"-37.81630543173182, 144.9602164244812"
105395,Inflation Nightclub/Top Yard Rooftop Bar,"54-60 King Street, Melbourne, 3000",Melbourne (CBD),Nightclub,http://www.inflation.com.au/aboutus.htm,-37.81895269,144.9570865,POINT (144.957086510704 -37.81895269154),"-37.81895269154036, 144.95708651070385"
103102,The Shaw Davey Slum,"171 Elgin Street, Carlton, 3053",Carlton,Bar,http://theshawdaveyslum.com.au/,-37.79743273,144.9687969,POINT (144.968796896829 -37.797432725687),"-37.797432725686676, 144.96879689682868"
577360,Victoria Star Cruises,"Berth 10, Victoria Harbour, Docklands, 3008",Docklands,Venue,http://www.victoriastar.com.au/,-37.81738056,144.9423024,POINT (144.942302387764 -37.817380564149),"-37.817380564148905, 144.9423023877635"
110477,Level 3 at Crown,"8 Whiteman Street, Southbank, 3006",Southbank,Nightclub,http://www.level3atcrown.com.au/,-37.82248527,144.9600541,POINT (144.960054146799 -37.822485266414),"-37.82248526641422, 144.96005414679885"
558769,Fiftyfive,"Basement, 55 Elizabeth Street, Melbourne, 3000",Melbourne (CBD),Bar,http://www.fifty-five.com.au/,-37.8169766,144.9642232,POINT (144.964223223385 -37.816976599047),"-37.81697659904653, 144.96422322338523"
613319,Asian Beer Café,"Shop 311, Level 3, 300 Lonsdale Street, Melbourne, 3000",Melbourne (CBD),Bar,http://asianbeercafe.com.au/,-37.81016156,144.9634082,POINT (144.963408223498 -37.810161564491),"-37.81016156449148, 144.96340822349765"
504866,Sticky Institute,"Shop 10, Campbell Arcade, Melbourne, 3000",Melbourne (CBD),Bar,http://www.stickyinstitute.com/,-37.81780039,144.9660829,POINT (144.966082911624 -37.81780039372),"-37.81780039372033, 144.96608291162394"
508066,Basement Discs,"Basement, 24 Block Place, Melbourne, 3000",Melbourne (CBD),Performance space,http://www.basementdiscs.com.au/,-37.81539881,144.9643969,POINT (144.964396853147 -37.815398812509),"-37.815398812509436, 144.96439685314675"
574518,Loop Project Space & Bar,"Ground, 19-23 Meyers Place, Melbourne, 3000",Melbourne (CBD),Bar,http://www.looponline.com.au/,-37.81212244,144.9722104,POINT (144.972210436338 -37.812122444393),"-37.81212244439291, 144.97221043633814"
602017,Hopscotch Urban Beer Bar,"Shop 4, 4 Riverside Quay, Southbank, 3006",Southbank,Bar,https://www.hopscotchmelbourne.com.au/,-37.82109278,144.9637445,POINT (144.963744509271 -37.821092784176),"-37.82109278417599, 144.96374450927075"
103602,Her Majesty's Theatre,"199-219 Exhibition Street, Melbourne, 3000",Melbourne (CBD),Theatre,http://www.hmt.com.au/,-37.81089991,144.9698418,POINT (144.969841757876 -37.810899906795),"-37.81089990679512, 144.96984175787586"
502966,Café Segovia,"33 Block Place, Melbourne, 3000",Melbourne (CBD),Bar,https://www.tripadvisor.com.au/Restaurant_Review-g255100-d722884-Reviews-Cafe_Segovia-Melbourne_Victoria.html,-37.81530881,144.9643167,POINT (144.964316718334 -37.815308805481),"-37.81530880548056, 144.96431671833355"
594103,Curtin House,"Unit S15, Level 7, 252 Swanston Street, Melbourne, 3000",Melbourne (CBD),Bar,http://curtinhouse.com/,-37.81197919,144.9651337,POINT (144.965133741987 -37.811979194752),"-37.81197919475205, 144.96513374198747"
682450,La Di Da,"188-200 King Street, Melbourne, 3000",Melbourne (CBD),Nightclub,https://www.ladidapeople.com/,-37.81555899,144.9555332,POINT (144.955533161884 -37.815558987309),"-37.815558987309416, 144.95553316188418"
631756,The Emerald Peacock,"233 Lonsdale Street, Melbourne, 3000",Melbourne (CBD),Bar,http://theemeraldpeacock.com/,-37.81146925,144.9655499,POINT (144.96554992145 -37.811469254972),"-37.81146925497217, 144.9655499214504"
547254,Club Voltaire,"Gnd & Level 1, 14 Raglan Street, North Melbourne, 3051",North Melbourne,Venue,https://www.facebook.com/clubvoltairemelbourne/,-37.80432381,144.9501153,POINT (144.950115267912 -37.804323811801),"-37.80432381180095, 144.95011526791205"
106254,Trades Hall,"2 Lygon Street, Carlton, 3053",Carlton,Bar,https://www.bellaunion.com.au/,-37.80683784,144.9660558,POINT (144.966055818426 -37.806837843631),"-37.80683784363076, 144.96605581842582"
525750,Mr Tod,"Basement, 2-6 Parliament Place, East Melbourne, 3002",East Melbourne,Multi-use,http://www.mrtod.com.au/,-37.81168448,144.9755201,POINT (144.975520056413 -37.811684475181),"-37.81168447518055, 144.97552005641302"
105313,Victoria University,"225 King Street, Melbourne, 3000",Melbourne (CBD),Multi-use,https://www.vu.edu.au/,-37.81498069,144.9549018,POINT (144.95490184836 -37.814980689471),"-37.81498068947084, 144.95490184835984"
540198,Co.,"Shop 53, Level 2, 8 Whiteman Street, Southbank, 3006",Southbank,Nightclub,http://www.level3atcrown.com.au/,-37.82363502,144.957813,POINT (144.957812961254 -37.823635015853),"-37.823635015853306, 144.95781296125432"
109257,Young & Jackson,"Young And Jacksons Hotel, 1 Swanston Street, Melbourne, 3000",Melbourne (CBD),Hotel,https://www.youngandjacksons.com.au/,-37.81736433,144.9672103,POINT (144.967210315384 -37.817364327683),"-37.81736432768269, 144.96721031538397"
622055,Spice Market,"LwrGround, 121-131 Collins Street, Melbourne, 3000",Melbourne (CBD),Nightclub,http://www.spicemarket.net.au/,-37.81548539,144.9695654,POINT (144.969565384905 -37.815485385015),"-37.81548538501546, 144.96956538490497"
107919,Sokol Melbourne,"497 Queensberry Street, North Melbourne, 3051",North Melbourne,Hotel,http://www.sokolmelbourne.com.au/,-37.8033201,144.9507603,POINT (144.950760271044 -37.803320098163),"-37.80332009816263, 144.95076027104383"
513261,fortyfive downstairs,"Basement & LwrGround, 45 Flinders Lane, Melbourne, 3000",Melbourne (CBD),Bar,http://www.fortyfivedownstairs.com/wp2016/,-37.81476782,144.9729815,POINT (144.972981488153 -37.8147678158),"-37.81476781579968, 144.97298148815318"
614009,The Comic's Lounge,"Level 1, 26 Errol Street, North Melbourne, 3051",North Melbourne,Venue,https://www.thecomicslounge.com.au/,-37.80449837,144.9495408,POINT (144.94954077159 -37.804498370442),"-37.80449837044193, 144.94954077158977"
103922,Garden State Hotel,"95-101 Flinders Lane, Melbourne, 3000",Melbourne (CBD),Hotel,http://gardenstatehotel.com.au/,-37.81533365,144.9710389,POINT (144.971038856571 -37.815333649123),"-37.81533364912343, 144.97103885657114"
101101,Alexandra Gardens,"Alexandra Avenue, Melbourne, 3004",Melbourne (Remainder),Performance space,http://www.visitmelbourne.com/regions/High-Country/Travel-information/Visitor-information-centres/Alexandra-Visitor-Information-Centre.aspx,-37.82080258,144.9718557,POINT (144.971855693041 -37.8208025792),"-37.82080257920049, 144.97185569304133"
562238,Manchuria,"Level 1, 7-9 Waratah Place, Melbourne, 3000",Melbourne (CBD),Bar,http://www.manchuriabar.com/,-37.8116263,144.9670985,POINT (144.967098452888 -37.811626300808),"-37.811626300807845, 144.96709845288777"
614233,Transit Rooftop Bar,"Tenancy 29, Level 2, 2 Swanston Street, Melbourne, 3000",Melbourne (CBD),Hotel,https://transitrooftopbar.com.au/,-37.81828957,144.9689689,POINT (144.968968933621 -37.818289569133),"-37.81828956913258, 144.96896893362114"
606667,Building 8,"Building 8, RMIT University, 360 Swanston Street, Melbourne, 3000",Melbourne (CBD),Multi-use,https://www.rmit.edu.au/,-37.80877876,144.9636252,POINT (144.963625219559 -37.808778758138),"-37.80877875813838, 144.96362521955905"
657233,The Toff in Town,"Unit S3-S4, Level 2, 252 Swanston Street, Melbourne, 3000",Melbourne (CBD),Venue,https://www.thetoffintown.com/,-37.81204362,144.9652115,POINT (144.965211487043 -37.812043620603),"-37.81204362060309, 144.96521148704275"
540126,Left Bank Melbourne,"Ground, 1 Southbank Boulevard, Southbank, 3006",Southbank,Bar,http://www.leftbankmelbourne.com.au/,-37.82098854,144.9625167,POINT (144.962516679389 -37.82098853598),"-37.820988535980156, 144.9625166793894"
108987,The Princess Theatre,"163-181 Spring Street, Melbourne, 3000",Melbourne (CBD),Theatre,https://marrinergroup.com.au/venues/princess-theatre,-37.8106837,144.9725545,POINT (144.972554526734 -37.81068370082),"-37.810683700820334, 144.97255452673397"
620270,Melbourne Recital Centre,"Melbourne Recital Centre, 31 Sturt Street, Southbank, 3006",Southbank,Performance space,https://www.melbournerecital.com.au/,-37.82430328,144.9672846,POINT (144.967284610255 -37.824303283035),"-37.82430328303502, 144.9672846102551"
110273,Melbourne Zoo,"Elliott Avenue, Parkville, 3052",Parkville,Performance space,https://www.zoo.org.au/melbourne,-37.78535415,144.9531734,POINT (144.953173412685 -37.785354151626),"-37.78535415162557, 144.9531734126854"
108536,The Crafty Squire,"115-127 Russell Street, Melbourne, 3000",Melbourne (CBD),Hotel,http://www.thecraftysquire.com.au/,-37.81364054,144.9682966,POINT (144.968296572348 -37.813640544785),"-37.81364054478455, 144.96829657234807"
559514,Arrow On Swanston,"488 Swanston Street, Carlton, 3053",Carlton,Venue,http://www.arrowonswanston.com.au/,-37.80545937,144.9632755,POINT (144.963275496624 -37.805459370954),"-37.805459370954416, 144.96327549662402"
